COMMENT,ORIGINATOR,NORAD_CAT_ID,OBJECT_NAME,OBJECT_TYPE,CLASSIFICATION_TYPE,INTLDES,EPOCH,EPOCH_MICROSECONDS,MEAN_MOTION,ECCENTRICITY,INCLINATION,RA_OF_ASC_NODE,ARG_OF_PERICENTER,MEAN_ANOMALY,EPHEMERIS_TYPE,ELEMENT_SET_NO,REV_AT_EPOCH,BSTAR,MEAN_MOTION_DOT,MEAN_MOTION_DDOT,FILE,TLE_LINE0,TLE_LINE1,TLE_LINE2,OBJECT_ID,OBJECT_NUMBER,SEMIMAJOR_AXIS,PERIOD,APOGEE,PERIGEE,DECAYED
"GENERATED VIA SPACETRACK.ORG API","18 SPCS","55089","SPACEBEE-163","PAYLOAD","U","23001CJ","2023-10-05 17:02:21","677568","15.2489241","0.0011977","97.4623","338.0781","341.0191","19.0599","0","999","4191","0.0016389","0.00040958","0","4025843","0 SPACEBEE-163","1 55089U 23001CJ  23278.70997312  .00040958  00000-0  16389-2 0  9998","2 55089  97.4623 338.0781 0011977 341.0191  19.0599 15.24892410 41918","2023-001CJ","55089","6869.246","94.433","499.338","482.883","0"
"GENERATED VIA SPACETRACK.ORG API","18 SPCS","55089","SPACEBEE-163","PAYLOAD","U","23001CJ","2023-10-06 02:29:18","935232","15.24921625","0.0011943","97.4622","338.4704","339.7362","20.34","0","999","4197","0.0015172","0.00037929","0","4026099","0 SPACEBEE-163","1 55089U 23001CJ  23279.10369138  .00037929  00000-0  15172-2 0  9995","2 55089  97.4622 338.4704 0011943 339.7362  20.3400 15.24921625 41976","2023-001CJ","55089","6869.158","94.431","499.227","482.819","0"
"GENERATED VIA SPACETRACK.ORG API","18 SPCS","55089","SPACEBEE-163","PAYLOAD","U","23001CJ","2023-10-06 10:21:46","128096","15.24945953","0.001193","97.4625","338.7971","338.6271","21.4467","0","999","4202","0.0014452","0.00036143","0","4026447","0 SPACEBEE-163","1 55089U 23001CJ  23279.43178389  .00036143  00000-0  14452-2 0  9994","2 55089  97.4625 338.7971 0011930 338.6271  21.4467 15.24945953 42023","2023-001CJ","55089","6869.085","94.430","499.145","482.755","0"
"GENERATED VIA SPACETRACK.ORG API","18 SPCS","55089","SPACEBEE-163","PAYLOAD","U","23001CJ","2023-10-06 21:23:11","435712","15.24981565","0.0011913","97.4625","339.255","336.7474","23.3223","0","999","4209","0.0015264","0.00038228","0","4026736","0 SPACEBEE-163","1 55089U 23001CJ  23279.89110458  .00038228  00000-0  15264-2 0  9995","2 55089  97.4625 339.2550 0011913 336.7474  23.3223 15.24981565 42094","2023-001CJ","55089","6868.978","94.427","499.026","482.660","0"
"GENERATED VIA SPACETRACK.ORG API","18 SPCS","55089","SPACEBEE-163","PAYLOAD","U","23001CJ","2023-10-07 09:59:04","953120","15.25021245","0.0011846","97.4625","339.7783","334.8043","25.2615","0","999","4217","0.0014779","0.00037049","0","4027311","0 SPACEBEE-163","1 55089U 23001CJ  23280.41602955  .00037049  00000-0  14779-2 0  9993","2 55089  97.4625 339.7783 0011846 334.8043  25.2615 15.25021245 42179","2023-001CJ","55089","6868.859","94.425","498.860","482.587","0"
"GENERATED VIA SPACETRACK.ORG API","18 SPCS","55089","SPACEBEE-163","PAYLOAD","U","23001CJ","2023-10-07 09:59:04","953120","15.25021245","0.0011846","97.4625","339.7783","334.8043","25.2615","0","999","4217","0.0014779","0.00037049","0","4027321","0 SPACEBEE-163","1 55089U 23001CJ  23280.41602955  .00037049  00000-0  14779-2 0  9993","2 55089  97.4625 339.7783 0011846 334.8043  25.2615 15.25021245 42179","2023-001CJ","55089","6868.859","94.425","498.860","482.587","0"
"GENERATED VIA SPACETRACK.ORG API","18 SPCS","55089","SPACEBEE-163","PAYLOAD","U","23001CJ","2023-10-07 16:17:01","278528","15.25040315","0.0011824","97.4627","340.0399","333.7533","26.3104","0","999","4221","0.0013884","0.0003481","0","4027648","0 SPACEBEE-163","1 55089U 23001CJ  23280.67848702  .00034810  00000-0  13884-2 0  9992","2 55089  97.4627 340.0399 0011824 333.7533  26.3104 15.25040315 42216","2023-001CJ","55089","6868.801","94.424","498.788","482.545","0"
"GENERATED VIA SPACETRACK.ORG API","18 SPCS","55089","SPACEBEE-163","PAYLOAD","U","23001CJ","2023-10-08 03:18:24","140160","15.25076399","0.0011835","97.4625","340.4977","331.792","28.2675","0","999","4228","0.0015306","0.00038443","0","4028261","0 SPACEBEE-163","1 55089U 23001CJ  23281.13777940  .00038443  00000-0  15306-2 0  9996","2 55089  97.4625 340.4977 0011835 331.7920  28.2675 15.25076399 42282","2023-001CJ","55089","6868.693","94.421","498.687","482.429","0"
"GENERATED VIA SPACETRACK.ORG API","18 SPCS","55089","SPACEBEE-163","PAYLOAD","U","23001CJ","2023-10-08 15:54:14","749344","15.25121855","0.0011805","97.4627","341.0209","329.758","30.2975","0","999","4236","0.0016471","0.00041447","0","4028555","0 SPACEBEE-163","1 55089U 23001CJ  23281.66267071  .00041447  00000-0  16471-2 0  9995","2 55089  97.4627 341.0209 0011805 329.7580  30.2975 15.25121855 42368","2023-001CJ","55089","6868.557","94.419","498.530","482.313","0"
"GENERATED VIA SPACETRACK.ORG API","18 SPCS","55089","SPACEBEE-163","PAYLOAD","U","23001CJ","2023-10-08 15:54:14","749344","15.25121855","0.0011805","97.4627","341.0209","329.758","30.2975","0","999","4236","0.0016471","0.00041447","0","4028564","0 SPACEBEE-163","1 55089U 23001CJ  23281.66267071  .00041447  00000-0  16471-2 0  9995","2 55089  97.4627 341.0209 0011805 329.7580  30.2975 15.25121855 42368","2023-001CJ","55089","6868.557","94.419","498.530","482.313","0"
"GENERATED VIA SPACETRACK.ORG API","18 SPCS","55089","SPACEBEE-163","PAYLOAD","U","23001CJ","2023-10-09 02:55:35","436288","15.25161339","0.0011799","97.4627","341.4788","328.0194","32.0327","0","999","4243","0.0016634","0.0004191","0","4029150","0 SPACEBEE-163","1 55089U 23001CJ  23282.12193792  .00041910  00000-0  16634-2 0  9991","2 55089  97.4627 341.4788 0011799 328.0194  32.0327 15.25161339 42439","2023-001CJ","55089","6868.438","94.416","498.407","482.199","0"
"GENERATED VIA SPACETRACK.ORG API","18 SPCS","55089","SPACEBEE-163","PAYLOAD","U","23001CJ","2023-10-09 15:31:23","572704","15.25204833","0.0011753","97.4628","342.0021","326.2027","33.846","0","999","4251","0.0015788","0.00039815","0","4029504","0 SPACEBEE-163","1 55089U 23001CJ  23282.64680061  .00039815  00000-0  15788-2 0  9998","2 55089  97.4628 342.0021 0011753 326.2027  33.8460 15.25204833 42515","2023-001CJ","55089","6868.307","94.414","498.245","482.100","0"
"GENERATED VIA SPACETRACK.ORG API","18 SPCS","55089","SPACEBEE-163","PAYLOAD","U","23001CJ","2023-10-10 02:32:41","967456","15.25250256","0.0011759","97.4637","342.4605","324.5545","35.491","0","999","4258","0.0017731","0.00044814","0","4029768","0 SPACEBEE-163","1 55089U 23001CJ  23283.10604129  .00044814  00000-0  17731-2 0  9996","2 55089  97.4637 342.4605 0011759 324.5545  35.4910 15.25250256 42584","2023-001CJ","55089","6868.171","94.411","498.112","481.960","0"
"GENERATED VIA SPACETRACK.ORG API","18 SPCS","55089","SPACEBEE-163","PAYLOAD","U","23001CJ","2023-10-10 04:07:10","222176","15.25256391","0.0011731","97.4631","342.5255","324.3377","35.7076","0","999","4259","0.0017511","0.00044262","0","4030143","0 SPACEBEE-163","1 55089U 23001CJ  23283.17164609  .00044262  00000-0  17511-2 0  9990","2 55089  97.4631 342.5255 0011731 324.3377  35.7076 15.25256391 42594","2023-001CJ","55089","6868.153","94.410","498.075","481.961","0"
"GENERATED VIA SPACETRACK.ORG API","18 SPCS","55089","SPACEBEE-163","PAYLOAD","U","23001CJ","2023-10-10 16:42:55","451232","15.25304573","0.001169","97.4626","343.0484","322.4672","37.5748","0","999","4267","0.0017016","0.00043063","0","4030441","0 SPACEBEE-163","1 55089U 23001CJ  23283.69647513  .00043063  00000-0  17016-2 0  9995","2 55089  97.4626 343.0484 0011690 322.4672  37.5748 15.25304573 42670","2023-001CJ","55089","6868.008","94.407","497.902","481.844","0"
"GENERATED VIA SPACETRACK.ORG API","18 SPCS","55089","SPACEBEE-163","PAYLOAD","U","23001CJ","2023-10-11 03:44:11","449248","15.25340992","0.0011705","97.4624","343.5064","320.8221","39.2168","0","999","4274","0.0015696","0.00039743","0","4031075","0 SPACEBEE-163","1 55089U 23001CJ  23284.15568807  .00039743  00000-0  15696-2 0  9997","2 55089  97.4624 343.5064 0011705 320.8221  39.2168 15.25340992 42744","2023-001CJ","55089","6867.899","94.405","497.803","481.725","0"
"GENERATED VIA SPACETRACK.ORG API","18 SPCS","55089","SPACEBEE-163","PAYLOAD","U","23001CJ","2023-10-11 03:44:11","449248","15.25340992","0.0011705","97.4624","343.5064","320.8221","39.2168","0","999","4274","0.0015696","0.00039743","0","4031093","0 SPACEBEE-163","1 55089U 23001CJ  23284.15568807  .00039743  00000-0  15696-2 0  9997","2 55089  97.4624 343.5064 0011705 320.8221  39.2168 15.25340992 42744","2023-001CJ","55089","6867.899","94.405","497.803","481.725","0"
"GENERATED VIA SPACETRACK.ORG API","18 SPCS","55089","SPACEBEE-163","PAYLOAD","U","23001CJ","2023-10-12 03:21:08","170560","15.25423544","0.0011779","97.462","344.4875","317.0132","43.0185","0","999","4289","0.0016961","0.00043078","0","4031907","0 SPACEBEE-163","1 55089U 23001CJ  23285.13967790  .00043078  00000-0  16961-2 0  9992","2 55089  97.4620 344.4875 0011779 317.0132  43.0185 15.25423544 42893","2023-001CJ","55089","6867.651","94.400","497.605","481.427","0"
"GENERATED VIA SPACETRACK.ORG API","18 SPCS","55089","SPACEBEE-163","PAYLOAD","U","23001CJ","2023-10-12 17:31:16","65120","15.25469565","0.001177","97.4618","345.0762","314.7991","45.2289","0","999","4298","0.001571","0.00039934","0","4032285","0 SPACEBEE-163","1 55089U 23001CJ  23285.73004705  .00039934  00000-0  15710-2 0  9993","2 55089  97.4618 345.0762 0011770 314.7991  45.2289 15.25469565 42982","2023-001CJ","55089","6867.513","94.397","497.461","481.295","0"
"GENERATED VIA SPACETRACK.ORG API","18 SPCS","55089","SPACEBEE-163","PAYLOAD","U","23001CJ","2023-10-12 17:31:16","65120","15.25469565","0.001177","97.4618","345.0762","314.7991","45.2289","0","999","4298","0.001571","0.00039934","0","4032297","0 SPACEBEE-163","1 55089U 23001CJ  23285.73004705  .00039934  00000-0  15710-2 0  9993","2 55089  97.4618 345.0762 0011770 314.7991  45.2289 15.25469565 42982","2023-001CJ","55089","6867.513","94.397","497.461","481.295","0"
